[{"OBJECT_NAME":"CUBESX-HSE 3 (RS42S)","OBJECT_ID":"2023-091N","EPOCH":"2026-03-09T22:57:25.321248","MEAN_MOTION":15.286147,"ECCENTRICITY":0.00127191,"INCLINATION":97.5203,"RA_OF_ASC_NODE":133.4295,"ARG_OF_PERICENTER":86.5376,"MEAN_ANOMALY":273.7318,"EPHEMERIS_TYPE":0,"CLASSIFICATION_TYPE":"U","NORAD_CAT_ID":57178,"ELEMENT_SET_NO":999,"REV_AT_EPOCH":14925,"BSTAR":0.00059055694,"MEAN_MOTION_DOT":0.00016417,"MEAN_MOTION_DDOT":0},{"OBJECT_NAME":"STARLINK-31705","OBJECT_ID":"2024-062J","EPOCH":"2026-03-09T21:47:54.701664","MEAN_MOTION":15.3019285,"ECCENTRICITY":0.00018979,"INCLINATION":53.1595,"RA_OF_ASC_NODE":254.7329,"ARG_OF_PERICENTER":107.0611,"MEAN_ANOMALY":253.0598,"EPHEMERIS_TYPE":0,"CLASSIFICATION_TYPE":"U","NORAD_CAT_ID":59382,"ELEMENT_SET_NO":999,"REV_AT_EPOCH":10966,"BSTAR":-7.73978e-6,"MEAN_MOTION_DOT":-5.89e-6,"MEAN_MOTION_DDOT":0}]
